NORAD_CAT_ID,OBJECT_NAME,OBJECT_TYPE,EPOCH,MEAN_MOTION,ECCENTRICITY,INCLINATION,RA_OF_ASC_NODE,ARG_OF_PERICENTER,MEAN_ANOMALY,BSTAR,MEAN_MOTION_DOT,MEAN_MOTION_DDOT,TLE_LINE0,TLE_LINE1,TLE_LINE2,SEMIMAJOR_AXIS,PERIOD,APOGEE,PERIGEE,DECAYED
53576.0,STARLINK-4581,PAYLOAD,2022-09-10 22:00:00,15.73173262,0.0002020999999999,53.2149,45.1975,24.6819,228.3971,0.00048418,0.00067806,0.0,0 STARLINK-4581,1 53576U 22101BB  22253.91667824  .00067806  00000-0  48418-3 0  9994,2 53576  53.2149  45.1975 0002021  24.6819 228.3971 15.73173262  1301,6727.971,91.535,351.196,348.477,0.0
53576.0,STARLINK-4581,PAYLOAD,2022-09-11 04:00:00,15.73205886,0.0001826,53.2151,43.9587,26.0591,203.7093,0.00038416,0.00053654,0.0,0 STARLINK-4581,1 53576U 22101BB  22254.16667824  .00053654  00000-0  38416-3 0  9995,2 53576  53.2151  43.9587 0001826  26.0591 203.7093 15.73205886  3542,6727.878000000002,91.533,350.972,348.515,0.0
53576.0,STARLINK-4581,PAYLOAD,2022-09-11 12:00:00,15.73244736,0.000187,53.2155,42.3091,31.5298,287.1949,-0.00036247,-0.00051283,0.0,0 STARLINK-4581,1 53576U 22101BB  22254.50001157 -.00051283  00000-0 -36247-3 0  9992,2 53576  53.2155  42.3091 0001870  31.5298 287.1949 15.73244736  3591,6727.768,91.531,350.891,348.375,0.0
53576.0,STARLINK-4581,PAYLOAD,2022-09-11 14:00:01,15.7324763,0.0001952,53.2154,41.8974,29.1587,41.806,-0.00051961,-0.00073069,0.0,0 STARLINK-4581,1 53576U 22101BB  22254.58334491 -.00073069  00000-0 -51961-3 0  9996,2 53576  53.2154  41.8974 0001952  29.1587  41.8060 15.73247630  1301,6727.759,91.53,350.93800000000016,348.311,0.0
53576.0,STARLINK-4581,PAYLOAD,2022-09-11 22:00:00,15.73187429,0.0002115,53.2154,40.2488,23.35,136.5689,0.00061199,0.00086111,0.0,0 STARLINK-4581,1 53576U 22101BB  22254.91667824  .00086111  00000-0  61199-3 0  9996,2 53576  53.2154  40.2488 0002115  23.3500 136.5689 15.73187429  1305,6727.931,91.534,351.219,348.37300000000016,0.0
53576.0,STARLINK-4581,PAYLOAD,2022-09-12 04:00:00,15.73262368,0.0002018,53.216,39.0099,25.7542,110.8718,-0.00040545,-0.00057294,0.0,0 STARLINK-4581,1 53576U 22101BB  22255.16667824 -.00057294  00000-0 -40545-3 0  9998,2 53576  53.2160  39.0099 0002018  25.7542 110.8718 15.73262368  3700,6727.717,91.53,350.94,348.225,0.0
53576.0,STARLINK-4581,PAYLOAD,2022-09-12 12:00:00,15.7322443,0.0002065,53.2161,37.3605,27.4201,198.1782,-0.00027578,-0.00039189,0.0,0 STARLINK-4581,1 53576U 22101BB  22255.50001157 -.00039189  00000-0 -27578-3 0  9991,2 53576  53.2161  37.3605 0002065  27.4201 198.1782 15.73224430  1300,6727.826,91.532,351.08,348.301,0.0
53576.0,STARLINK-4581,PAYLOAD,2022-09-12 22:00:00,15.73191699,0.0002274,53.2153,35.2999,17.2465,49.526,0.0002522,0.00034911,0.0,0 STARLINK-4581,1 53576U 22101BB  22255.91667824  .00034911  00000-0  25220-3 0  9993,2 53576  53.2153  35.2999 0002274  17.2465  49.5260 15.73191699  1305,6727.919,91.534,351.314,348.254,0.0
53576.0,STARLINK-4581,PAYLOAD,2022-09-13 06:00:00,15.73181057,0.0001982,53.2154,33.6485,13.3577,142.3586,0.00028299,0.0003925,0.0,0 STARLINK-4581,1 53576U 22101BB  22256.25001157  .00039250  00000-0  28299-3 0  9992,2 53576  53.2154  33.6485 0001982  13.3577 142.3586 15.73181057  3878,6727.949000000001,91.534,351.148,348.481,0.0
53576.0,STARLINK-4581,PAYLOAD,2022-09-13 14:00:01,15.73235202,0.0002211999999999,53.2158,32.0005,15.499,229.1349,-0.00040998,-0.00057858,0.0,0 STARLINK-4581,1 53576U 22101BB  22256.58334491 -.00057858  00000-0 -40998-3 0  9994,2 53576  53.2158  32.0005 0002212  15.4990 229.1349 15.73235202  1301,6727.795,91.531,351.148,348.172,0.0
53576.0,STARLINK-4581,PAYLOAD,2022-09-13 20:00:01,15.73194675,0.0002460999999999,53.216,30.7635,17.1722,204.1789,1.8512e-05,1.976e-05,0.0,0 STARLINK-4581,1 53576U 22101BB  22256.83334491  .00001976  00000-0  18512-4 0  9998,2 53576  53.2160  30.7635 0002461  17.1722 204.1789 15.73194675  3969,6727.91,91.533,351.431,348.12,0.0
53576.0,STARLINK-4581,PAYLOAD,2022-09-13 22:00:00,15.73272078,0.0002499,53.216,30.3503,15.4078,318.1553,-0.0013463,-0.00186062,0.0,0 STARLINK-4581,1 53576U 22101BB  22256.91667824 -.00186062  00000-0 -13463-2 0  9996,2 53576  53.2160  30.3503 0002499  15.4078 318.1553 15.73272078  1300,6727.69,91.529,351.236,347.87300000000016,0.0
53576.0,STARLINK-4581,PAYLOAD,2022-09-14 04:00:00,15.73121406,0.0002360999999999,53.2163,29.1129,23.0381,287.1767,0.0006184999999999,0.00086796,0.0,0 STARLINK-4581,1 53576U 22101BB  22257.16667824  .00086796  00000-0  61850-3 0  9999,2 53576  53.2163  29.1129 0002361  23.0381 287.1767 15.73121406  4014,6728.119000000002,91.538,351.5730000000001,348.396,0.0
53576.0,STARLINK-4581,PAYLOAD,2022-09-14 14:00:01,15.73151113,0.0002349,53.2173,27.0492,16.983,134.3509,0.00044845,0.0006266,0.0,0 STARLINK-4581,1 53576U 22101BB  22257.58334491  .00062660  00000-0  44845-3 0  9995,2 53576  53.2173  27.0492 0002349  16.9830 134.3509 15.73151113  1305,6728.035,91.536,351.48,348.319,0.0
53576.0,STARLINK-4581,PAYLOAD,2022-09-14 20:00:01,15.73201762,0.0002418,53.2173,25.8124,12.997,114.9985,4.3879e-05,5.541e-05,0.0,0 STARLINK-4581,1 53576U 22101BB  22257.83334491  .00005541  00000-0  43879-4 0  9995,2 53576  53.2173  25.8124 0002418  12.9970 114.9985 15.73201762  4122,6727.89,91.533,351.38199999999995,348.12800000000016,0.0
53576.0,STARLINK-4581,PAYLOAD,2022-09-14 22:00:00,15.73216441,0.0002668,53.2155,25.403,19.2109,221.0651,-0.00018205,-0.00026115,0.0,0 STARLINK-4581,1 53576U 22101BB  22257.91667824 -.00026115  00000-0 -18205-3 0  9999,2 53576  53.2155  25.4030 0002668  19.2109 221.0651 15.73216441  1302,6727.848000000001,91.532,351.5080000000001,347.918,0.0
53576.0,STARLINK-4581,PAYLOAD,2022-09-15 14:00:01,15.73257608,0.0002703999999999,53.2158,22.1041,21.6691,36.4672,-0.00028354,-0.00040331,0.0,0 STARLINK-4581,1 53576U 22101BB  22258.58334491 -.00040331  00000-0 -28354-3 0  9996,2 53576  53.2158  22.1041 0002704  21.6691  36.4672 15.73257608  1306,6727.731,91.53,351.415,347.777,0.0
53576.0,STARLINK-4581,PAYLOAD,2022-09-15 22:00:00,15.73241978,0.0002739,53.2159,20.4545,16.7036,130.4091,-0.00039015,-0.00055129,0.0,0 STARLINK-4581,1 53576U 22101BB  22258.91667824 -.00055129  00000-0 -39015-3 0  9999,2 53576  53.2159  20.4545 0002739  16.7036 130.4091 15.73241978  4297,6727.775,91.531,351.483,347.798,0.0
53576.0,STARLINK-4581,PAYLOAD,2022-09-16 14:00:01,15.73170281,0.0002824,53.216,17.1553,16.2648,308.7285,-0.00050667,-0.00071059,0.0,0 STARLINK-4581,1 53576U 22101BB  22259.58334491 -.00071059  00000-0 -50667-3 0  9990,2 53576  53.2160  17.1553 0002824  16.2648 308.7285 15.73170281  1302,6727.98,91.535,351.745,347.945,0.0
53576.0,STARLINK-4581,PAYLOAD,2022-09-16 22:00:00,15.73142245,0.0002923,53.2155,15.5058,13.6705,40.1782,0.00022376,0.00030824,0.0,0 STARLINK-4581,1 53576U 22101BB  22259.91667824  .00030824  00000-0  22376-3 0  9995,2 53576  53.2155  15.5058 0002923  13.6705  40.1782 15.73142245  1301,6728.06,91.537,351.891,347.958,0.0
53576.0,STARLINK-4581,PAYLOAD,2022-09-17 06:00:00,15.73151127,0.0002679,53.2157,13.8548,15.8786,126.8475,0.00065295,0.00091841,0.0,0 STARLINK-4581,1 53576U 22101BB  22260.25001157  .00091841  00000-0  65295-3 0  9998,2 53576  53.2157  13.8548 0002679  15.8786 126.8475 15.73151127  4504,6728.035,91.536,351.702,348.097,0.0
53576.0,STARLINK-4581,PAYLOAD,2022-09-17 14:00:01,15.73220348,0.0002947,53.2157,12.2073,14.5728,217.0613,0.0001012,0.00013618,0.0,0 STARLINK-4581,1 53576U 22101BB  22260.58334491  .00013618  00000-0  10120-3 0  9997,2 53576  53.2157  12.2073 0002947  14.5728 217.0613 15.73220348  1304,6727.837,91.532,351.685,347.719,0.0
53576.0,STARLINK-4581,PAYLOAD,2022-09-17 22:00:00,15.73239634,0.0002992,53.2159,10.5573,11.8872,308.7063,-0.00025058,-0.0003571,0.0,0 STARLINK-4581,1 53576U 22101BB  22260.91667824 -.00035710  00000-0 -25058-3 0  9998,2 53576  53.2159  10.5573 0002992  11.8872 308.7063 15.73239634  4603,6727.781999999997,91.531,351.66,347.634,0.0
53576.0,STARLINK-4581,PAYLOAD,2022-09-18 14:00:01,15.73216348,0.0003234,53.2161,7.2582,16.8486,121.7368,0.00019128,0.00026331,0.0,0 STARLINK-4581,1 53576U 22101BB  22261.58335648  .00026331  00000-0  19128-3 0  9996,2 53576  53.2161   7.2582 0003234  16.8486 121.7368 15.73216348  4715,6727.849,91.532,351.889,347.538,0.0
53576.0,STARLINK-4581,PAYLOAD,2022-09-18 22:00:00,15.73251393,0.0003229,53.2157,5.6082,14.6832,212.7949,-0.00035691,-0.00050539,0.0,0 STARLINK-4581,1 53576U 22101BB  22261.91667824 -.00050539  00000-0 -35691-3 0  9999,2 53576  53.2157   5.6082 0003229  14.6832 212.7949 15.73251393  1309,6727.749,91.53,351.786,347.441,0.0
53576.0,STARLINK-4581,PAYLOAD,2022-09-19 06:00:02,15.73202789,0.0003196,53.2174,3.953,21.7876,294.6543,1.9726e-05,2.147e-05,0.0,0 STARLINK-4581,1 53576U 22101BB  22262.25002315  .00002147  00000-0  19726-4 0  9997,2 53576  53.2174   3.9530 0003196  21.7876 294.6543 15.73202789  4810,6727.887,91.533,351.902,347.602,0.0
53576.0,STARLINK-4581,PAYLOAD,2022-09-19 14:00:01,15.73205875,0.0003328999999999,53.2173,2.3057,21.5215,23.7865,-2.0372e-05,-3.483e-05,0.0,0 STARLINK-4581,1 53576U 22101BB  22262.58334491 -.00003483  00000-0 -20372-4 0  9991,2 53576  53.2173   2.3057 0003329  21.5215  23.7865 15.73205875  1307,6727.878000000002,91.533,351.983,347.504,0.0
53576.0,STARLINK-4581,PAYLOAD,2022-09-19 22:00:00,15.73196394,0.0003258,53.2162,0.6594,6.3908,127.9462,9.6366e-05,0.00012923,0.0,0 STARLINK-4581,1 53576U 22101BB  22262.91667824  .00012923  00000-0  96366-4 0  9990,2 53576  53.2162   0.6594 0003258   6.3908 127.9462 15.73196394  4929,6727.905,91.533,351.962,347.579,0.0
53576.0,STARLINK-4581,PAYLOAD,2022-09-20 14:00:01,15.73217675,0.00035,53.2165,357.3609,11.6947,300.517,-8.2301e-05,-0.0001217,0.0,0 STARLINK-4581,1 53576U 22101BB  22263.58334491 -.00012170  00000-0 -82301-4 0  9995,2 53576  53.2165 357.3609 0003500  11.6947 300.5170 15.73217675  1303,6727.845,91.532,352.065,347.355,0.0
